ONEWEB-0320             
1 49190U 21083E   26195.93297200 -.00000018  00000+0 -78583-4 0  9997
2 49190  87.9185 329.9431 0001948  98.6054 261.5299 13.18687477233631
ONEWEB-0321             
1 49191U 21083F   26196.15529735  .00000121  00000+0  26468-3 0  9991
2 49191  87.9185 268.8617 0002143 104.3143 255.8228 13.20773279240524
ONEWEB-0322             
1 49192U 21083G   26195.88404772 -.00000213  00000+0 -61942-3 0  9994
2 49192  87.8977 314.7232 0002047 113.2558 246.8786 13.13469649234559
ONEWEB-0324             
1 49193U 21083H   26195.90601014 -.00000057  00000+0 -17831-3 0  9990
2 49193  87.9199 329.9386 0002076  95.5947 264.5422 13.18686637233658
ONEWEB-0325             
1 49194U 21083J   26195.90937338 -.00000095  00000+0 -27474-3 0  9998
2 49194  87.9189 329.9434 0001842 100.1652 259.9688 13.18687313233663
ONEWEB-0326             
1 49195U 21083K   26195.92470536 -.00000060  00000+0 -18588-3 0  9991
2 49195  87.9196 329.9406 0001699  92.8841 267.2485 13.18686577233655
ONEWEB-0327             
1 49196U 21083L   26195.84854837  .00000025  00000+0  29658-4 0  9993
2 49196  87.9187 329.9574 0001491  92.8129 267.3174 13.18686546233664
ONEWEB-0328             
1 49197U 21083M   26195.87389171  .00000121  00000+0  29520-3 0  9995
2 49197  87.8988 314.7010 0002044  97.5991 262.5370 13.13469198234533
ONEWEB-0331             
1 49198U 21083N   26195.91780832 -.00000034  00000+0 -11818-3 0  9996
2 49198  87.9198 329.9358 0001725  88.0376 272.0954 13.18684413233669
ONEWEB-0333             
1 49199U 21083P   26195.86881351  .00000248  00000+0  64479-3 0  9995
2 49199  87.8979 314.7257 0001860 100.3841 259.7498 13.13469318234544
ONEWEB-0334             
1 49200U 21083Q   26196.16959558  .00000050  00000+0  92026-4 0  9998
2 49200  87.9185 268.8696 0002481 118.0674 242.0710 13.20769257240488
ONEWEB-0335             
1 49201U 21083R   26195.86373280  .00000416  00000+0  11042-2 0  9990
2 49201  87.8972 314.7244 0001811  94.3135 265.8201 13.13468392234553
ONEWEB-0336             
1 49202U 21083S   26195.83494865 -.00000132  00000+0 -39591-3 0  9998
2 49202  87.8974 314.7249 0001849  90.7612 269.3729 13.13469462234544
ONEWEB-0337             
1 49203U 21083T   26195.76880317  .00000158  00000+0  39845-3 0  9990
2 49203  87.8974 314.7436 0002069  95.2145 264.9221 13.13469484234530
ONEWEB-0338             
1 49204U 21083U   26196.14687100  .00000088  00000+0  18383-3 0  9995
2 49204  87.9183 268.8750 0002144 107.4226 252.7142 13.20771278240508
ONEWEB-0339             
1 49205U 21083V   26195.85357750  .00000273  00000+0  71367-3 0  9995
2 49205  87.8974 314.7207 0002142 106.5363 253.6001 13.13469126234521
